CARTOSAT-2A             
1 32783U 08021A   13256.08451533  .00000551  00000-0  82195-4 0  9608
2 32783  97.9798 313.7909 0014906  78.6109 281.6780 14.78660448290222
IMS-1                   
1 32786U 08021D   13256.09173329  .00000718  00000-0  99219-4 0  4432
2 32786  97.7437 305.5508 0014212  42.7109 317.5228 14.80924379290516
JASON 2 (OSTM)          
1 33105U 08032A   13256.14526859 -.00000023  00000-0  16625-3 0  7180
2 33105  66.0398  93.6169 0007502 268.3097 198.0268 12.80929778244736
RAPIDEYE 2              
1 33312U 08040A   13256.06069899  .00000267  00000-0  42194-4 0  6028
2 33312  97.9042 344.0166 0013432 126.0143 234.2317 14.79915957272289
RAPIDEYE 5              
1 33313U 08040B   13256.08557815  .00000287  00000-0  44859-4 0  5875
2 33313  97.8978 342.9610 0017881   6.6550 353.4903 14.79915315272233
RAPIDEYE 1              
1 33314U 08040C   13256.07369592  .00000298  00000-0  46155-4 0  6399
2 33314  97.9024 344.0032 0025370 139.5282 220.7825 14.79915370272272
RAPIDEYE 3              
1 33315U 08040D   13256.11159183  .00000276  00000-0  43442-4 0  5861
2 33315  97.8966 342.8461 0013895  79.0287 281.2489 14.79918155272240
RAPIDEYE 4              
1 33316U 08040E   13256.09761115  .00000285  00000-0  44567-4 0  5659
2 33316  97.8952 342.6038 0012716  29.1805 331.0116 14.79916035272232
HUANJING 1A (HJ-1A)     
1 33320U 08041A   13256.10119302  .00000577  00000-0  92751-4 0  5238
2 33320  97.8099 316.1642 0028468 124.1033 236.2889 14.74937949270239
HUANJING 1B (HJ-1B)     
1 33321U 08041B   13256.06908516  .00000473  00000-0  76989-4 0  5811
2 33321  97.8137 316.5088 0037763 140.6062 219.7905 14.74952968270215
GEOEYE 1                
1 33331U 08042A   13256.12176500  .00000144  00000-0  36185-4 0  5460
2 33331  98.1348 329.1294 0008774 239.6691 120.3657 14.64435796268177
THEOS                   
1 33396U 08049A   13256.16704102  .00000250  00000-0  13813-3 0  3364
2 33396  98.7457 322.7816 0001328 100.2336 337.8939 14.20019990256611
COSMO-SKYMED 3          
1 33412U 08054A   13256.10144952  .00000316  00000-0  46261-4 0  3697
2 33412  97.8766  79.9082 0001514  80.0361 280.0992 14.82160975264265
YAOGAN 4                
1 33446U 08061A   13256.07211265  .00000436  00000-0  72097-4 0  2799
2 33446  97.7283 306.5285 0018933  79.3128 281.0220 14.74830879257494
YAOGAN 5                
1 33456U 08064A   13256.10149912  .00014243  00000-0  26393-3 0  2907
2 33456  97.2071 329.5903 0005277 243.4626 176.6072 15.49080021265268
GOSAT (IBUKI)           
1 33492U 09002A   13256.11246583 -.00000128  00000-0 -14044-4 0  8033
2 33492  98.0973   4.9361 0001227  59.4396 300.6911 14.67533468248449
YAOGAN 6                
1 34839U 09021A   13256.12191575  .00003016  00000-0  15134-3 0  9017
2 34839  97.3184 336.3336 0001746 114.3494 331.5850 15.18054539243670
RAZAKSAT                
1 35578U 09037A   13256.18099522  .00000818  00000-0  47697-4 0  6003
2 35578   8.9880 282.5647 0017410 327.4626  32.4530 14.65728594223588
DEIMOS-1                
1 35681U 09041A   13256.06354637  .00000091  00000-0  23194-4 0  5694
2 35681  97.9911 153.0615 0001972  77.3804 282.7612 14.70013209221268
OCEANSAT 2              
1 35931U 09051A   13256.14697326  .00000280  00000-0  81992-4 0  4472
2 35931  98.2791 350.5702 0003723 107.3670 313.5448 14.50869052210360
WORLDVIEW-2 (WV-2)      
1 35946U 09055A   13256.11585669  .00000109  00000-0  50691-4 0  3634
2 35946  98.4459 334.6522 0001031 103.4509 256.6815 14.37609031206218
SMOS                    
1 36036U 09059A   13255.49207076  .00000230  00000-0  87420-4 0  1703
2 36036  98.4450  81.7362 0001008  89.0165 271.1139 14.39755929202951
YAOGAN 7                
1 36110U 09069A   13256.06261412  .00000067  00000-0  17934-4 0  1706
2 36110  98.0262  29.4340 0024501 184.1254 175.9733 14.74215573202478
TANDEM-X                
1 36605U 10030A   13256.07711435  .00001232  00000-0  61860-4 0  7585
2 36605  97.4455 262.3651 0001973  99.3560 260.7897 15.19147388179152
CARTOSAT 2B             
1 36795U 10035A   13256.05603689  .00000291  00000-0  46475-4 0  5542
2 36795  97.8503 314.3836 0016441 145.5235 214.7047 14.78731333171265
YAOGAN 10               
1 36834U 10038A   13256.06365755  .00000282  00000-0  42747-4 0  4399
2 36834  97.8548 252.5106 0001267  92.7227 267.4129 14.81256938167241
COSMO-SKYMED 4          
1 37216U 10060A   13256.06348013  .00000197  00000-0  31291-4 0  1650
2 37216  97.8750  79.8716 0001568  68.2158 291.9213 14.82156904154349
SAC-D                   
1 37673U 11024A   13255.65547727  .00000269  00000-0  50412-4 0  7196
2 37673  98.0135 261.8456 0001347 104.2595  32.0914 14.72326575121394
RASAT                   
1 37791U 11044D   13256.10847065  .00000162  00000-0  40367-4 0  3307
2 37791  98.1976 338.9550 0023504 114.5150 245.8505 14.63696184110833
MEGHA-TROPIQUES         
1 37838U 11058A   13256.10473264  .00000338  00000-0  41920-4 0  4830
2 37838  19.9772 151.3047 0009705 122.4537 237.6806 14.09695715 99122
SRMSAT                  
1 37841U 11058D   13256.03884214  .00000370  00000-0  58904-4 0  4620
2 37841  19.9715 148.2593 0012016 121.0586  10.3721 14.10246156 99183
YAOGAN 13               
1 37941U 11072A   13256.09737269  .00003478  00000-0  16544-3 0   351
2 37941  97.3732 184.6674 0001567 102.0774  96.4253 15.19823188 99264
PLEIADES 1A             
1 38012U 11076F   13256.07692006  .00000126  00000-0  36879-4 0  9453
2 38012  98.1937 329.9866 0001362  80.0727 280.0631 14.58562257 92705
ZIYUAN 1-02C (ZY 1-02C) 
1 38038U 11079A   13256.12109518 -.00000688  00000-0 -22471-3 0  9267
2 38038  98.4968 331.3703 0001118 107.0645 253.0730 14.35361485 90528
ZIYUAN 3 (ZY 3)         
1 38046U 12001A   13256.09288546  .00003071  00000-0  13989-3 0  9055
2 38046  97.4321 331.7601 0002509 322.4974 126.8916 15.21424574 93197
RISAT 1                 
1 38248U 12017A   13256.14916066  .00001178  00000-0  78693-4 0  5648
2 38248  97.5962 262.0990 0002525  85.6889 339.5390 15.08931483 76187
ARIRANG 3 (KOMPSAT-3)   
1 38338U 12025B   13256.12611000  .00000233  00000-0  56080-4 0   849
2 38338  98.1701 195.3071 0010578 323.7436  36.3047 14.61865422 70625
SPOT 6                  
1 38755U 12047A   13256.09181013  .00000118  00000-0  35102-4 0  1663
2 38755  98.1579 322.0368 0001815  76.0253 284.1155 14.58566685 53784
LANDSAT 8               
1 39084U 13008A   13255.83783334  .00000131  00000-0  39038-4 0  2570
2 39084  98.2027 325.5606 0000968  67.6477 292.4805 14.57118469 31067
SARAL                   
1 39086U 13009A   13255.37827247  .00000066  00000-0  40719-4 0  2300
2 39086  98.5602  82.5732 0001781  72.6229 287.5156 14.32241224 28469
